GLOBALSTAR M024         
1 25883U 99043A   25304.70842448 -.00000075  00000+0 -37363-3 0  9990
2 25883  52.0026  72.5774 0000711 356.7647 112.4817 11.10170771130028
GLOBALSTAR M027         
1 25884U 99043B   25304.71719248 -.00000090  00000+0 -10198-2 0  9996
2 25884  52.0177 154.4129 0020663 209.7390 150.2229 11.04372679156322
GLOBALSTAR M054         
1 25885U 99043C   25304.59232769 -.00000031  00000+0  10312-2 0  9993
2 25885  52.0134 259.0988 0005699  49.8543 121.5199 11.39222145134598
GLOBALSTAR M053         
1 25886U 99043D   25304.74593793 -.00000079  00000+0 -29200-3 0  9998
2 25886  51.9970 213.4026 0003348 331.8728  40.3528 11.27667946134852
GLOBALSTAR M058         
1 25907U 99049A   25304.68699484 -.00000052  00000+0  43682-3 0  9995
2 25907  51.9915 104.6798 0002383 153.5213 206.5744 11.93203727557837
GLOBALSTAR M050         
1 25908U 99049B   25304.70886184 -.00000119  00000+0 -35071-3 0  9992
2 25908  51.9968 102.0979 0008143 306.6489  66.3930 12.07460003164689
GLOBALSTAR M033         
1 25909U 99049C   25304.56514340 -.00000139  00000+0 -45415-3 0  9994
2 25909  51.9930 324.9072 0013869 184.7545 175.3172 12.20292500552395
GLOBALSTAR M055         
1 25910U 99049D   25304.76001257 -.00000051  00000+0  36951-3 0  9993
2 25910  52.0034 328.4574 0007182  56.4690 303.6847 12.29434750185084
